start=new Date('2022-11-28T00:00:00.000Z').valueOf();
sats=[{"FILE":"3671921","PERIOD":"95.438","TLE_LINE1":"1 49735U 21115M   22331.76665763  .00001773  00000-0  12947-3 0  9999","NORAD_CAT_ID":"49735","SEMIMAJOR_AXIS":"6917.906","DECAY_DATE":null,"SITE":"AFETR","MEAN_MOTION_DDOT":"0.0000000000000","RA_OF_ASC_NODE":"136.8027","GP_ID":"218992817","COUNTRY_CODE":"US","OBJECT_TYPE":"PAYLOAD","CENTER_NAME":"EARTH","APOAPSIS":"541.129","MEAN_ELEMENT_THEORY":"SGP4","REV_AT_EPOCH":"5454","TIME_SYSTEM":"UTC","EPOCH":"2022-11-27T18:23:59.219232","RCS_SIZE":"LARGE","ARG_OF_PERICENTER":"55.8453","REF_FRAME":"TEME","OBJECT_NAME":"STARLINK-3113","MEAN_ANOMALY":"304.2725","ELEMENT_SET_NO":"999","OBJECT_ID":"2021-115M","CLASSIFICATION_TYPE":"U","EPHEMERIS_TYPE":"0","PERIAPSIS":"538.413","MEAN_MOTION":"15.08831513","ECCENTRICITY":"0.00019630","INCLINATION":"53.2160","LAUNCH_DATE":"2021-12-02","TLE_LINE2":"2 49735  53.2160 136.8027 0001963  55.8453 304.2725 15.08831513 54549","MEAN_MOTION_DOT":"0.00001773","BSTAR":"0.00012947000000"},{"RA_OF_ASC_NODE":"126.4154","COUNTRY_CODE":"US","GP_ID":"218991067","OBJECT_TYPE":"PAYLOAD","CENTER_NAME":"EARTH","APOAPSIS":"541.521","MEAN_ELEMENT_THEORY":"SGP4","REV_AT_EPOCH":"5470","TIME_SYSTEM":"UTC","EPOCH":"2022-11-27T20:32:30.220512","PERIOD":"95.437","FILE":"3671921","TLE_LINE1":"1 49736U 21115N   22331.85590533  .00001103  00000-0  87404-4 0  9990","NORAD_CAT_ID":"49736","SEMIMAJOR_AXIS":"6917.864","MEAN_MOTION_DDOT":"0.0000000000000","DECAY_DATE":null,"SITE":"AFETR","PERIAPSIS":"537.937","MEAN_MOTION":"15.08845350","ECCENTRICITY":"0.00025900","INCLINATION":"53.2158","LAUNCH_DATE":"2021-12-02","TLE_LINE2":"2 49736  53.2158 126.4154 0002590  51.8779 308.2446 15.08845350 54703","MEAN_MOTION_DOT":"0.00001103","BSTAR":"0.00008740400000","RCS_SIZE":"LARGE","ARG_OF_PERICENTER":"51.8779","REF_FRAME":"TEME","OBJECT_NAME":"STARLINK-3148","MEAN_ANOMALY":"308.2446","ELEMENT_SET_NO":"999","OBJECT_ID":"2021-115N","EPHEMERIS_TYPE":"0","CLASSIFICATION_TYPE":"U"},{"RA_OF_ASC_NODE":"127.0225","COUNTRY_CODE":"US","GP_ID":"218991816","OBJECT_TYPE":"PAYLOAD","CENTER_NAME":"EARTH","APOAPSIS":"541.467","MEAN_ELEMENT_THEORY":"SGP4","REV_AT_EPOCH":"5468","TIME_SYSTEM":"UTC","EPOCH":"2022-11-27T17:16:25.432320","FILE":"3671921","PERIOD":"95.438","TLE_LINE1":"1 49737U 21115P   22331.71973880 -.00001325  00000-0 -65110-4 0  9994","NORAD_CAT_ID":"49737","SEMIMAJOR_AXIS":"6917.883","DECAY_DATE":null,"MEAN_MOTION_DDOT":"0.0000000000000","SITE":"AFETR","PERIAPSIS":"538.029","MEAN_MOTION":"15.08839039","ECCENTRICITY":"0.00024850","INCLINATION":"53.2165","LAUNCH_DATE":"2021-12-02","MEAN_MOTION_DOT":"-0.00001325","TLE_LINE2":"2 49737  53.2165 127.0225 0002485  53.8989 306.2233 15.08839039 54682","BSTAR":"-0.00006511000000","RCS_SIZE":"LARGE","ARG_OF_PERICENTER":"53.8989","REF_FRAME":"TEME","OBJECT_NAME":"STARLINK-3225","MEAN_ANOMALY":"306.2233","ELEMENT_SET_NO":"999","OBJECT_ID":"2021-115P","CLASSIFICATION_TYPE":"U","EPHEMERIS_TYPE":"0"},{"MEAN_ANOMALY":"310.3407","OBJECT_ID":"2021-115Q","EPHEMERIS_TYPE":"0","CLASSIFICATION_TYPE":"U","ELEMENT_SET_NO":"999","RCS_SIZE":"LARGE","ARG_OF_PERICENTER":"49.7803","OBJECT_NAME":"STARLINK-3143","REF_FRAME":"TEME","INCLINATION":"53.2151","LAUNCH_DATE":"2021-12-02","MEAN_MOTION":"15.08830998","ECCENTRICITY":"0.00024960","BSTAR":"-0.00008732800000","MEAN_MOTION_DOT":"-0.00001678","TLE_LINE2":"2 49738  53.2151 126.3896 0002496  49.7803 310.3407 15.08830998 54702","PERIAPSIS":"538.046","NORAD_CAT_ID":"49738","TLE_LINE1":"1 49738U 21115Q   22331.85959255 -.00001678  00000-0 -87328-4 0  9996","DECAY_DATE":null,"SITE":"AFETR","MEAN_MOTION_DDOT":"0.0000000000000","SEMIMAJOR_AXIS":"6917.908","FILE":"3671921","PERIOD":"95.438","OBJECT_TYPE":"PAYLOAD","CENTER_NAME":"EARTH","TIME_SYSTEM":"UTC","EPOCH":"2022-11-27T20:37:48.796320","APOAPSIS":"541.500","MEAN_ELEMENT_THEORY":"SGP4","REV_AT_EPOCH":"5470","GP_ID":"218992068","COUNTRY_CODE":"US","RA_OF_ASC_NODE":"126.3896"},{"REF_FRAME":"TEME","OBJECT_NAME":"STARLINK-3155","ARG_OF_PERICENTER":"48.5719","RCS_SIZE":"LARGE","ELEMENT_SET_NO":"999","EPHEMERIS_TYPE":"0","CLASSIFICATION_TYPE":"U","OBJECT_ID":"2021-115R","MEAN_ANOMALY":"311.5494","PERIAPSIS":"537.969","TLE_LINE2":"2 49739  53.2182 136.1841 0002577  48.5719 311.5494 15.08837834 55671","MEAN_MOTION_DOT":"0.00001586","BSTAR":"0.00011778000000","ECCENTRICITY":"0.00025770","MEAN_MOTION":"15.08837834","LAUNCH_DATE":"2021-12-02","INCLINATION":"53.2182","PERIOD":"95.438","FILE":"3671878","SEMIMAJOR_AXIS":"6917.887","MEAN_MOTION_DDOT":"0.0000000000000","DECAY_DATE":null,"SITE":"AFETR","TLE_LINE1":"1 49739U 21115R   22331.90649874  .00001586  00000-0  11778-3 0  9997","NORAD_CAT_ID":"49739","RA_OF_ASC_NODE":"136.1841","GP_ID":"218967391","COUNTRY_CODE":"US","REV_AT_EPOCH":"5567","APOAPSIS":"541.535","MEAN_ELEMENT_THEORY":"SGP4","EPOCH":"2022-11-27T21:45:21.491136","TIME_SYSTEM":"UTC","CENTER_NAME":"EARTH","OBJECT_TYPE":"PAYLOAD"},{"MEAN_ANOMALY":"310.7319","ELEMENT_SET_NO":"999","OBJECT_ID":"2021-115S","EPHEMERIS_TYPE":"0","CLASSIFICATION_TYPE":"U","RCS_SIZE":"LARGE","ARG_OF_PERICENTER":"49.3882","REF_FRAME":"TEME","OBJECT_NAME":"STARLINK-3226","MEAN_MOTION":"15.08836731","ECCENTRICITY":"0.00024040","INCLINATION":"53.2159","LAUNCH_DATE":"2021-12-02","TLE_LINE2":"2 49740  53.2159 126.9314 0002404  49.3882 310.7319 15.08836731 54680","MEAN_MOTION_DOT":"-0.00000071","BSTAR":"0.00001368300000","PERIAPSIS":"538.092","TLE_LINE1":"1 49740U 21115S   22331.73813833 -.00000071  00000-0  13683-4 0  9995","NORAD_CAT_ID":"49740","SEMIMAJOR_AXIS":"6917.890","MEAN_MOTION_DDOT":"0.0000000000000","DECAY_DATE":null,"SITE":"AFETR","PERIOD":"95.438","FILE":"3671921","OBJECT_TYPE":"PAYLOAD","CENTER_NAME":"EARTH","MEAN_ELEMENT_THEORY":"SGP4","APOAPSIS":"541.418","REV_AT_EPOCH":"5468","TIME_SYSTEM":"UTC","EPOCH":"2022-11-27T17:42:55.151712","RA_OF_ASC_NODE":"126.9314","GP_ID":"218991567","COUNTRY_CODE":"US"},{"FILE":"3671921","PERIOD":"95.438","TLE_LINE1":"1 49741U 21115T   22331.86325821 -.00000624  00000-0 -21113-4 0  9997","NORAD_CAT_ID":"49741","SEMIMAJOR_AXIS":"6917.884","DECAY_DATE":null,"SITE":"AFETR","MEAN_MOTION_DDOT":"0.0000000000000","RA_OF_ASC_NODE":"126.3656","GP_ID":"218991318","COUNTRY_CODE":"US","CENTER_NAME":"EARTH","OBJECT_TYPE":"PAYLOAD","REV_AT_EPOCH":"5470","APOAPSIS":"541.427","MEAN_ELEMENT_THEORY":"SGP4","EPOCH":"2022-11-27T20:43:05.509344","TIME_SYSTEM":"UTC","ARG_OF_PERICENTER":"50.4562","RCS_SIZE":"LARGE","REF_FRAME":"TEME","OBJECT_NAME":"STARLINK-3244","MEAN_ANOMALY":"309.6644","ELEMENT_SET_NO":"999","EPHEMERIS_TYPE":"0","CLASSIFICATION_TYPE":"U","OBJECT_ID":"2021-115T","PERIAPSIS":"538.071","ECCENTRICITY":"0.00024260","MEAN_MOTION":"15.08838881","LAUNCH_DATE":"2021-12-02","INCLINATION":"53.2195","MEAN_MOTION_DOT":"-0.00000624","TLE_LINE2":"2 49741  53.2195 126.3656 0002426  50.4562 309.6644 15.08838881 54705","BSTAR":"-0.00002111300000"},{"RA_OF_ASC_NODE":"126.6039","GP_ID":"218992568","COUNTRY_CODE":"US","OBJECT_TYPE":"PAYLOAD","CENTER_NAME":"EARTH","APOAPSIS":"541.523","MEAN_ELEMENT_THEORY":"SGP4","REV_AT_EPOCH":"5469","TIME_SYSTEM":"UTC","EPOCH":"2022-11-27T19:28:54.449184","FILE":"3671921","PERIOD":"95.438","TLE_LINE1":"1 49742U 21115U   22331.81174131 -.00000032  00000-0  16100-4 0  9991","NORAD_CAT_ID":"49742","SEMIMAJOR_AXIS":"6917.892","SITE":"AFETR","DECAY_DATE":null,"MEAN_MOTION_DDOT":"0.0000000000000","PERIAPSIS":"537.991","MEAN_MOTION":"15.08836157","ECCENTRICITY":"0.00025530","INCLINATION":"53.2158","LAUNCH_DATE":"2021-12-02","MEAN_MOTION_DOT":"-0.00000032","TLE_LINE2":"2 49742  53.2158 126.6039 0002553  49.3102 310.8112 15.08836157 54697","BSTAR":"0.00001610000000","RCS_SIZE":"LARGE","ARG_OF_PERICENTER":"49.3102","REF_FRAME":"TEME","OBJECT_NAME":"STARLINK-3202","MEAN_ANOMALY":"310.8112","ELEMENT_SET_NO":"999","OBJECT_ID":"2021-115U","EPHEMERIS_TYPE":"0","CLASSIFICATION_TYPE":"U"},{"ECCENTRICITY":"0.00022870","MEAN_MOTION":"15.08841531","LAUNCH_DATE":"2021-12-02","INCLINATION":"53.2160","TLE_LINE2":"2 49743  53.2160 126.3582 0002287  49.5377 310.5814 15.08841531 54701","MEAN_MOTION_DOT":"-0.00000969","BSTAR":"-0.00004275400000","PERIAPSIS":"538.159","MEAN_ANOMALY":"310.5814","ELEMENT_SET_NO":"999","CLASSIFICATION_TYPE":"U","EPHEMERIS_TYPE":"0","OBJECT_ID":"2021-115V","ARG_OF_PERICENTER":"49.5377","RCS_SIZE":"LARGE","REF_FRAME":"TEME","OBJECT_NAME":"STARLINK-3239","CENTER_NAME":"EARTH","OBJECT_TYPE":"PAYLOAD","REV_AT_EPOCH":"5470","APOAPSIS":"541.323","MEAN_ELEMENT_THEORY":"SGP4","TIME_SYSTEM":"UTC","EPOCH":"2022-11-27T20:48:23.533056","RA_OF_ASC_NODE":"126.3582","COUNTRY_CODE":"US","GP_ID":"218992818","TLE_LINE1":"1 49743U 21115V   22331.86693904 -.00000969  00000-0 -42754-4 0  9995","NORAD_CAT_ID":"49743","SEMIMAJOR_AXIS":"6917.876","SITE":"AFETR","DECAY_DATE":null,"MEAN_MOTION_DDOT":"0.0000000000000","FILE":"3671921","PERIOD":"95.437"},{"ELEMENT_SET_NO":"999","OBJECT_ID":"2021-115W","EPHEMERIS_TYPE":"0","CLASSIFICATION_TYPE":"U","MEAN_ANOMALY":"307.5265","REF_FRAME":"TEME","OBJECT_NAME":"STARLINK-3231","RCS_SIZE":"MEDIUM","ARG_OF_PERICENTER":"52.5933","TLE_LINE2":"2 49744  53.2163 126.8630 0002257  52.5933 307.5265 15.08843970 55798","MEAN_MOTION_DOT":"0.00002408","BSTAR":"0.00016935000000","MEAN_MOTION":"15.08843970","ECCENTRICITY":"0.00022570","INCLINATION":"53.2163","LAUNCH_DATE":"2021-12-02","PERIAPSIS":"538.172","SEMIMAJOR_AXIS":"6917.868","DECAY_DATE":null,"SITE":"AFETR","MEAN_MOTION_DDOT":"0.0000000000000","TLE_LINE1":"1 49744U 21115W   22331.75285633  .00002408  00000-0  16935-3 0  9999","NORAD_CAT_ID":"49744","FILE":"3671890","PERIOD":"95.437","APOAPSIS":"541.295","MEAN_ELEMENT_THEORY":"SGP4","REV_AT_EPOCH":"5579","EPOCH":"2022-11-27T18:04:06.786912","TIME_SYSTEM":"UTC","OBJECT_TYPE":"PAYLOAD","CENTER_NAME":"EARTH","RA_OF_ASC_NODE":"126.8630","COUNTRY_CODE":"US","GP_ID":"218967556"}];
